{
  "type": "FeatureCollection",
  "features": [
    {
      "type": "Feature",
      "properties": {
        "norad_id": 66576,
        "name": "STARLINK-35814",
        "group": "last-30-days",
        "lat": -26.76163059337043,
        "lon": 129.72094195483015,
        "alt_km": 372.2218320286347,
        "timestamp": "2025-12-05T16:54:13.486537+00:00",
        "meta_object_name": "STARLINK-35814",
        "meta_object_id": "2025-268V",
        "meta_epoch": "2025-12-05T06:00:02.000160",
        "meta_mean_motion": 15.67856515,
        "meta_eccentricity": 0.00017784,
        "meta_inclination": 42.9995,
        "meta_ra_of_asc_node": 165.2093,
        "meta_arg_of_pericenter": 262.0254,
        "meta_mean_anomaly": 11.0001,
        "meta_ephemeris_type": 0,
        "meta_classification_type": "U",
        "meta_norad_cat_id": 66576,
        "meta_element_set_no": 999,
        "meta_rev_at_epoch": 346,
        "meta_bstar": -0.01983935,
        "meta_mean_motion_dot": -0.01983725,
        "meta_mean_motion_ddot": 0,
        "tle_line1": "1 66576U 25268V   25339.25002315 -.01983725  00000+0 -19839-1 0  9990",
        "tle_line2": "2 66576  42.9995 165.2093 0001778 262.0254  11.0001 15.67856515  3465"
      },
      "geometry": {
        "type": "Point",
        "coordinates": [
          129.72094195483015,
          -26.76163059337043
        ]
      }
    },
    {
      "type": "Feature",
      "properties": {
        "norad_id": 66577,
        "name": "STARLINK-35815",
        "group": "last-30-days",
        "lat": -25.653863924538438,
        "lon": 131.455683436878,
        "alt_km": 372.08730868544626,
        "timestamp": "2025-12-05T16:54:13.486547+00:00",
        "meta_object_name": "STARLINK-35815",
        "meta_object_id": "2025-268W",
        "meta_epoch": "2025-12-05T06:00:02.000160",
        "meta_mean_motion": 15.67859051,
        "meta_eccentricity": 0.00017799,
        "meta_inclination": 42.9995,
        "meta_ra_of_asc_node": 165.2044,
        "meta_arg_of_pericenter": 265.9502,
        "meta_mean_anomaly": 8.9896,
        "meta_ephemeris_type": 0,
        "meta_classification_type": "U",
        "meta_norad_cat_id": 66577,
        "meta_element_set_no": 999,
        "meta_rev_at_epoch": 346,
        "meta_bstar": -0.019861535,
        "meta_mean_motion_dot": -0.01985862,
        "meta_mean_motion_ddot": 0,
        "tle_line1": "1 66577U 25268W   25339.25002315 -.01985862  00000+0 -19862-1 0  9991",
        "tle_line2": "2 66577  42.9995 165.2044 0001779 265.9502   8.9896 15.67859051  3466"
      },
      "geometry": {
        "type": "Point",
        "coordinates": [
          131.455683436878,
          -25.653863924538438
        ]
      }
    },
    {
      "type": "Feature",
      "properties": {
        "norad_id": 66578,
        "name": "STARLINK-35743",
        "group": "last-30-days",
        "lat": -24.524181616943313,
        "lon": 133.16104920512635,
        "alt_km": 372.13322342882657,
        "timestamp": "2025-12-05T16:54:13.486556+00:00",
        "meta_object_name": "STARLINK-35743",
        "meta_object_id": "2025-268X",
        "meta_epoch": "2025-12-05T06:00:02.000160",
        "meta_mean_motion": 15.67861921,
        "meta_eccentricity": 0.00017445,
        "meta_inclination": 42.9996,
        "meta_ra_of_asc_node": 165.1998,
        "meta_arg_of_pericenter": 262.8309,
        "meta_mean_anomaly": 14.0248,
        "meta_ephemeris_type": 0,
        "meta_classification_type": "U",
        "meta_norad_cat_id": 66578,
        "meta_element_set_no": 999,
        "meta_rev_at_epoch": 346,
        "meta_bstar": -0.019898056,
        "meta_mean_motion_dot": -0.01989255,
        "meta_mean_motion_ddot": 0,
        "tle_line1": "1 66578U 25268X   25339.25002315 -.01989255  00000+0 -19898-1 0  9991",
        "tle_line2": "2 66578  42.9996 165.1998 0001744 262.8309  14.0248 15.67861921  3466"
      },
      "geometry": {
        "type": "Point",
        "coordinates": [
          133.16104920512635,
          -24.524181616943313
        ]
      }
    },
    {
      "type": "Feature",
      "properties": {
        "norad_id": 66579,
        "name": "STARLINK-35868",
        "group": "last-30-days",
        "lat": -23.375669594554147,
        "lon": 134.8348077344076,
        "alt_km": 372.0771180209749,
        "timestamp": "2025-12-05T16:54:13.486564+00:00",
        "meta_object_name": "STARLINK-35868",
        "meta_object_id": "2025-268Y",
        "meta_epoch": "2025-12-05T06:00:02.000160",
        "meta_mean_motion": 15.6786196,
        "meta_eccentricity": 0.00018104,
        "meta_inclination": 42.9994,
        "meta_ra_of_asc_node": 165.1948,
        "meta_arg_of_pericenter": 262.5535,
        "meta_mean_anomaly": 16.2216,
        "meta_ephemeris_type": 0,
        "meta_classification_type": "U",
        "meta_norad_cat_id": 66579,
        "meta_element_set_no": 999,
        "meta_rev_at_epoch": 346,
        "meta_bstar": -0.019929805,
        "meta_mean_motion_dot": -0.01992106,
        "meta_mean_motion_ddot": 0,
        "tle_line1": "1 66579U 25268Y   25339.25002315 -.01992106  00000+0 -19930-1 0  9998",
        "tle_line2": "2 66579  42.9994 165.1948 0001810 262.5535  16.2216 15.67861960  3464"
      },
      "geometry": {
        "type": "Point",
        "coordinates": [
          134.8348077344076,
          -23.375669594554147
        ]
      }
    },
    {
      "type": "Feature",
      "properties": {
        "norad_id": 66580,
        "name": "STARLINK-35872",
        "group": "last-30-days",
        "lat": -22.210211714456616,
        "lon": 136.47960325108022,
        "alt_km": 372.05020612469525,
        "timestamp": "2025-12-05T16:54:13.486573+00:00",
        "meta_object_name": "STARLINK-35872",
        "meta_object_id": "2025-268Z",
        "meta_epoch": "2025-12-05T06:00:02.000160",
        "meta_mean_motion": 15.67862502,
        "meta_eccentricity": 0.00017244,
        "meta_inclination": 42.9995,
        "meta_ra_of_asc_node": 165.1905,
        "meta_arg_of_pericenter": 262.5441,
        "meta_mean_anomaly": 18.1462,
        "meta_ephemeris_type": 0,
        "meta_classification_type": "U",
        "meta_norad_cat_id": 66580,
        "meta_element_set_no": 999,
        "meta_rev_at_epoch": 346,
        "meta_bstar": -0.01991038,
        "meta_mean_motion_dot": -0.01990365,
        "meta_mean_motion_ddot": 0,
        "tle_line1": "1 66580U 25268Z   25339.25002315 -.01990365  00000+0 -19910-1 0  9993",
        "tle_line2": "2 66580  42.9995 165.1905 0001724 262.5441  18.1462 15.67862502  3467"
      },
      "geometry": {
        "type": "Point",
        "coordinates": [
          136.47960325108022,
          -22.210211714456616
        ]
      }
    },
    {
      "type": "Feature",
      "properties": {
        "norad_id": 66581,
        "name": "STARLINK-35744",
        "group": "last-30-days",
        "lat": -21.02826496095485,
        "lon": 138.09595344904415,
        "alt_km": 371.9346769543545,
        "timestamp": "2025-12-05T16:54:13.486582+00:00",
        "meta_object_name": "STARLINK-35744",
        "meta_object_id": "2025-268AA",
        "meta_epoch": "2025-12-05T06:00:02.000160",
        "meta_mean_motion": 15.67861755,
        "meta_eccentricity": 0.00017832,
        "meta_inclination": 42.9996,
        "meta_ra_of_asc_node": 165.1849,
        "meta_arg_of_pericenter": 264.3258,
        "meta_mean_anomaly": 18.2834,
        "meta_ephemeris_type": 0,
        "meta_classification_type": "U",
        "meta_norad_cat_id": 66581,
        "meta_element_set_no": 999,
        "meta_rev_at_epoch": 341,
        "meta_bstar": -0.019922093,
        "meta_mean_motion_dot": -0.0199139,
        "meta_mean_motion_ddot": 0,
        "tle_line1": "1 66581U 25268AA  25339.25002315 -.01991390  00000+0 -19922-1 0  9996",
        "tle_line2": "2 66581  42.9996 165.1849 0001783 264.3258  18.2834 15.67861755  3415"
      },
      "geometry": {
        "type": "Point",
        "coordinates": [
          138.09595344904415,
          -21.02826496095485
        ]
      }
    },
    {
      "type": "Feature",
      "properties": {
        "norad_id": 66582,
        "name": "STARLINK-35746",
        "group": "last-30-days",
        "lat": -19.830824737481343,
        "lon": 139.68768510079374,
        "alt_km": 371.8560853269337,
        "timestamp": "2025-12-05T16:54:13.486592+00:00",
        "meta_object_name": "STARLINK-35746",
        "meta_object_id": "2025-268AB",
        "meta_epoch": "2025-12-05T06:00:02.000160",
        "meta_mean_motion": 15.67857911,
        "meta_eccentricity": 0.00018368,
        "meta_inclination": 42.9996,
        "meta_ra_of_asc_node": 165.18,
        "meta_arg_of_pericenter": 264.0395,
        "meta_mean_anomaly": 20.486,
        "meta_ephemeris_type": 0,
        "meta_classification_type": "U",
        "meta_norad_cat_id": 66582,
        "meta_element_set_no": 999,
        "meta_rev_at_epoch": 346,
        "meta_bstar": -0.019840784,
        "meta_mean_motion_dot": -0.01984,
        "meta_mean_motion_ddot": 0,
        "tle_line1": "1 66582U 25268AB  25339.25002315 -.01984000  00000+0 -19841-1 0  9997",
        "tle_line2": "2 66582  42.9996 165.1800 0001836 264.0395  20.4860 15.67857911  3469"
      },
      "geometry": {
        "type": "Point",
        "coordinates": [
          139.68768510079374,
          -19.830824737481343
        ]
      }
    }
  ]
}